line1,line2,validFromUtcTime
1 00000U 00000E   26001.00000000  .00000000  00000-0  27772-4 0    01,2 00000  88.9607 165.3356 0009801 269.5943 187.7662 13.55231168    07,2026-01-01T00:00:00Z
1 00000U 00000E   26002.00000000  .00000000  00000-0  27772-4 0    02,2 00000  88.9607 165.2299 0009801 266.6840  26.5968 13.55231206    08,2026-01-02T00:00:00Z
